norad_id,name,regime,epoch,line1,line2,inclination,eccentricity,mean_motion,raan,arg_pericenter,mean_anomaly
43015,MIRATA,LEO,19309.79051745,1 43015U 17073C   19309.79051745  .00001249  00000-0  10144-3 0  6122,2 43015  97.7181 225.5479 0256025  61.3086 301.3604 14.79197348106003,97.7181,0.0256025,14.79197348,225.5479,61.3086,301.3604
43015,MIRATA,LEO,19310.73754065,1 43015U 17073C   19310.73754065 +.00001277 +00000-0 +10359-3 0 0001,2 43015 097.7181 226.4582 0255985 058.2376 304.3503 14.7919988610614,97.7181,0.0255985,14.79199886,226.4582,58.2376,304.3503
43015,MIRATA,LEO,19311.07576261,1 43015U 17073C   19311.07576261  .00001268  00000-0  10291-3 0  6136,2 43015  97.7182 226.7833 0255972  57.1412 305.4160 14.79200653106193,97.7182,0.0255972,14.79200653,226.7833,57.1412,305.416
43015,MIRATA,LEO,19311.48162806,1 43015U 17073C   19311.48162806 +.00001378 +00000-0 +11135-3 0 0001,2 43015 097.7182 227.1735 0255950 055.8243 306.6949 14.7920233210625,97.7182,0.025595,14.79202332,227.1735,55.8243,306.6949
43015,MIRATA,LEO,19312.83451105,1 43015U 17073C   19312.83451105  .00001298  00000-0  10524-3 0  6143,2 43015  97.7184 228.4739 0255880  51.4364 310.9475 14.79205051106456,97.7184,0.025588,14.79205051,228.4739,51.4364,310.9475
43015,MIRATA,LEO,19313.78152534,1 43015U 17073C   19313.78152534 +.00001407 +00000-0 +11370-3 0 0001,2 43015 097.7185 229.3841 0255828 048.3650 313.9166 14.7920805010659,97.7185,0.0255828,14.7920805,229.3841,48.365,313.9166
43015,MIRATA,LEO,19314.18738789,1 43015U 17073C   19314.18738789  .00001370  00000-0  11082-3 0  6151,2 43015  97.7185 229.7742 0255812  47.0484 315.1876 14.79208885106656,97.7185,0.0255812,14.79208885,229.7742,47.0484,315.1876
43015,MIRATA,LEO,19314.79618068,1 43015U 17073C   19314.79618068 +.00001421 +00000-0 +11482-3 0 0001,2 43015 097.7186 230.3595 0255783 045.0710 317.0944 14.7921073910674,97.7186,0.0255783,14.79210739,230.3595,45.071,317.0944
43015,MIRATA,LEO,19315.47261610,1 43015U 17073C   19315.47261610  .00001395  00000-0  11280-3 0  6166,2 43015  97.7187 231.0097 0255751  42.8745 319.2098 14.79212254106849,97.7187,0.0255751,14.79212254,231.0097,42.8745,319.2098
43015,MIRATA,LEO,19315.87847592,1 43015U 17073C   19315.87847592 +.00001492 +00000-0 +12029-3 0 0001,2 43015 097.7187 231.3999 0255724 041.5581 320.4762 14.7921404910690,97.7187,0.0255724,14.79214049,231.3999,41.5581,320.4762
43015,MIRATA,LEO,19316.48726525,1 43015U 17073C   19316.48726525  .00001551  00000-0  12487-3 0  6174,2 43015  97.7188 231.9851 0255692  39.5805 322.3769 14.79216073106990,97.7188,0.0255692,14.79216073,231.9851,39.5805,322.3769
43015,MIRATA,LEO,19316.89312403,1 43015U 17073C   19316.89312403 +.00001603 +00000-0 +12891-3 0 0001,2 43015 097.7188 232.3753 0255667 038.2622 323.6429 14.7921757510705,97.7188,0.0255667,14.79217575,232.3753,38.2622,323.6429
43015,MIRATA,LEO,19317.70484086,1 43015U 17073C   19317.70484086  .00001534  00000-0  12361-3 0  6186,2 43015  97.7189 233.1556 0255616  35.6267 326.1710 14.79219422107172,97.7189,0.0255616,14.79219422,233.1556,35.6267,326.171
43015,MIRATA,LEO,19317.84012675,1 43015U 17073C   19317.84012675 +.00001527 +00000-0 +12305-3 0 0001,2 43015 097.7189 233.2857 0255609 035.1874 326.5920 14.7921978410719,97.7189,0.0255609,14.79219784,233.2857,35.1874,326.592
43015,MIRATA,LEO,19318.78712623,1 43015U 17073C   19318.78712623  .00001573  00000-0  12669-3 0  6191,2 43015  97.7190 234.1961 0255555  32.1103 329.5389 14.79222909107339,97.719,0.0255555,14.79222909,234.1961,32.1103,329.5389
43015,MIRATA,LEO,19318.85476920,1 43015U 17073C   19318.85476920 +.00001530 +00000-0 +12337-3 0 0001,2 43015 097.7190 234.2611 0255551 031.8909 329.7488 14.7922280510734,97.719,0.0255551,14.79222805,234.2611,31.8909,329.7488
43015,MIRATA,LEO,19318.92241191,1 43015U 17073C   19318.92241191 +.00001532 +00000-0 +12348-3 0 0001,2 43015 097.7190 234.3262 0255547 031.6712 329.9591 14.7922301610735,97.719,0.0255547,14.79223016,234.3262,31.6712,329.9591
43015,MIRATA,LEO,19319.80176603,1 43015U 17073C   19319.80176603  .00001556  00000-0  12539-3 0  6206,2 43015  97.7191 235.1716 0255497  28.8120 332.6931 14.79225803107485,97.7191,0.0255497,14.79225803,235.1716,28.812,332.6931
43015,MIRATA,LEO,19320.81640257,1 43015U 17073C   19320.81640257  .00001553  00000-0  12524-3 0  6212,2 43015  97.7192 236.1471 0255431  25.5140 335.8426 14.79228905107636,97.7192,0.0255431,14.79228905,236.1471,25.514,335.8426
43015,MIRATA,LEO,19320.88404498,1 43015U 17073C   19320.88404498 +.00001537 +00000-0 +12398-3 0 0001,2 43015 097.7192 236.2122 0255428 025.2939 336.0526 14.7922900110764,97.7192,0.0255428,14.79229001,236.2122,25.2939,336.0526
43015,MIRATA,LEO,19321.83103650,1 43015U 17073C   19321.83103650 +.00001512 +00000-0 +12207-3 0 0001,2 43015 097.7193 237.1226 0255355 022.2164 338.9879 14.7923171210778,97.7193,0.0255355,14.79231712,237.1226,22.2164,338.9879
43015,MIRATA,LEO,19322.71038394,1 43015U 17073C   19322.71038394 +.00001465 +00000-0 +11852-3 0 0001,2 43015 097.7194 237.9681 0255286 019.3571 341.7124 14.7923402310791,97.7194,0.0255286,14.79234023,237.9681,19.3571,341.7124
43015,MIRATA,LEO,19323.79265473,1 43015U 17073C   19323.79265473  .00001599  00000-0  12893-3 0  6236,2 43015  97.7194 239.0086 0255168  15.8407 345.0601 14.79237910108070,97.7194,0.0255168,14.7923791,239.0086,15.8407,345.0601
43015,MIRATA,LEO,19324.80728112,1 43015U 17073C   19324.80728112  .00001685  00000-0  13559-3 0  6240,2 43015  97.7195 239.9843 0255097  12.5393 348.2007 14.79241314108225,97.7195,0.0255097,14.79241314,239.9843,12.5393,348.2007
43015,MIRATA,LEO,19325.82190497,1 43015U 17073C   19325.82190497 +.00001715 +00000-0 +13801-3 0 0001,2 43015 097.7195 240.9599 0255022 009.2375 351.3398 14.7924449010837,97.7195,0.0255022,14.7924449,240.9599,9.2375,351.3398
43015,MIRATA,LEO,19325.88954648,1 43015U 17073C   19325.88954648  .00001707  00000-0  13738-3 0  6259,2 43015  97.7195 241.0250 0255016   9.0174 351.5490 14.79244644108389,97.7195,0.0255016,14.79244644,241.025,9.0174,351.549
43015,MIRATA,LEO,19326.70124353,1 43015U 17073C   19326.70124353 +.00001729 +00000-0 +13911-3 0 0001,2 43015 097.7196 241.8054 0254953 006.3745 354.0608 14.7924725010850,97.7196,0.0254953,14.7924725,241.8054,6.3745,354.0608
43015,MIRATA,LEO,19327.44529723,1 43015U 17073C   19327.44529723  .00001810  00000-0  14538-3 0  6260,2 43015  97.7196 242.5208 0254887   3.9538 356.3608 14.79250216108613,97.7196,0.0254887,14.79250216,242.5208,3.9538,356.3608
43015,MIRATA,LEO,19327.64822049,1 43015U 17073C   19327.64822049 +.00001881 +00000-0 +15089-3 0 0001,2 43015 097.7197 242.7160 0254872 003.2926 356.9889 14.7925137310864,97.7197,0.0254872,14.79251373,242.716,3.2926,356.9889
43015,MIRATA,LEO,19328.79811873,1 43015U 17073C   19328.79811873  .00002194  00000-0  17509-3 0  6277,2 43015  97.7198 243.8217 0254778 359.5533   0.5413 14.79256171108813,97.7198,0.0254778,14.79256171,243.8217,359.5533,0.5413
43015,MIRATA,LEO,19329.81273068,1 43015U 17073C   19329.81273068  .00002001  00000-0  16031-3 0  6286,2 43015  97.7200 244.7974 0254661 356.2513   3.6785 14.79260190108968,97.72,0.0254661,14.7926019,244.7974,356.2513,3.6785
43015,MIRATA,LEO,19329.88037133,1 43015U 17073C   19329.88037133 +.00002028 +00000-0 +16238-3 0 0001,2 43015 097.7200 244.8625 0254653 356.0314 003.8874 14.7926059010897,97.72,0.0254653,14.7926059,244.8625,356.0314,3.8874
43015,MIRATA,LEO,19330.75969951,1 43015U 17073C   19330.75969951 +.00001825 +00000-0 +14681-3 0 0001,2 43015 097.7202 245.7080 0254575 353.1667 006.6097 14.7926362010910,97.7202,0.0254575,14.7926362,245.708,353.1667,6.6097
43015,MIRATA,LEO,19331.43610439,1 43015U 17073C   19331.43610439  .00001775  00000-0  14298-3 0  6295,2 43015  97.7202 246.3585 0254508 350.9617   8.7056 14.79266138109205,97.7202,0.0254508,14.79266138,246.3585,350.9617,8.7056
43015,MIRATA,LEO,19331.70666620,1 43015U 17073C   19331.70666620 +.00001727 +00000-0 +13927-3 0 0001,2 43015 097.7202 246.6187 0254487 350.0781 009.5457 14.7926696710924,97.7202,0.0254487,14.79266967,246.6187,350.0781,9.5457
43015,MIRATA,LEO,19332.72127222,1 43015U 17073C   19332.72127222  .00001568  00000-0  12705-3 0  6304,2 43015  97.7202 247.5947 0254434 346.7640  12.6977 14.79269275109398,97.7202,0.0254434,14.79269275,247.5947,346.764,12.6977
43015,MIRATA,LEO,19333.73587604,1 43015U 17073C   19333.73587604  .00001476  00000-0  11995-3 0  6319,2 43015  97.7204 248.5704 0254361 343.4581  15.8440 14.79272479109546,97.7204,0.0254361,14.79272479,248.5704,343.4581,15.844
43015,MIRATA,LEO,19334.75047830,1 43015U 17073C   19334.75047830  .00001416  00000-0  11544-3 0  6329,2 43015  97.7204 249.5462 0254266 340.1476  18.9976 14.79275501109692,97.7204,0.0254266,14.79275501,249.5462,340.1476,18.9976
43015,MIRATA,LEO,19335.83271935,1 43015U 17073C   19335.83271935  .00001361  00000-0  11122-3 0  6336,2 43015  97.7205 250.5870 0254157 336.6150  22.3663 14.79278538109859,97.7205,0.0254157,14.79278538,250.587,336.615,22.3663
43015,MIRATA,LEO,19336.91495904,1 43015U 17073C   19336.91495904 +.00001325 +00000-0 +10850-3 0 0001,2 43015 097.7206 251.6279 0254056 333.0802 025.7413 14.7928153711001,97.7206,0.0254056,14.79281537,251.6279,333.0802,25.7413
43015,MIRATA,LEO,19337.72663819,1 43015U 17073C   19337.72663819 +.00001248 +00000-0 +10258-3 0 0001,2 43015 097.7206 252.4086 0253988 330.4285 028.2762 14.7928338311013,97.7206,0.0253988,14.79283383,252.4086,330.4285,28.2762
43015,MIRATA,LEO,19338.67359621,1 43015U 17073C   19338.67359621 +.00001253 +00000-0 +10297-3 0 0001,2 43015 097.7206 253.3194 0253912 327.3336 031.2385 14.7928600311027,97.7206,0.0253912,14.79286003,253.3194,327.3336,31.2385
43015,MIRATA,LEO,19339.48527448,1 43015U 17073C   19339.48527448  .00001163  00000-0  96063-4 0  6343,2 43015  97.7207 254.1001 0253847 324.6819  33.7800 14.79287544110398,97.7207,0.0253847,14.79287544,254.1001,324.6819,33.78
